NORAD_CAT_ID,OBJECT_NAME,OBJECT_TYPE,EPOCH,MEAN_MOTION,ECCENTRICITY,INCLINATION,RA_OF_ASC_NODE,ARG_OF_PERICENTER,MEAN_ANOMALY,BSTAR,MEAN_MOTION_DOT,MEAN_MOTION_DDOT,TLE_LINE0,TLE_LINE1,TLE_LINE2,SEMIMAJOR_AXIS,PERIOD,APOGEE,PERIGEE,DECAYED
49421.0,STARLINK-3112,PAYLOAD,2022-05-29 06:00:02,15.08808231,0.0002106,53.2179,306.1535,43.598,354.3597,0.0021976999999999,0.00034832,0.0,0 STARLINK-3112,1 49421U 21104P   22149.25002315  .00034832  00000-0  21977-2 0  9992,2 49421  53.2179 306.1535 0002106  43.5980 354.3597 15.08808231 31310,6917.977,95.44,541.299,538.386,0.0
49421.0,STARLINK-3112,PAYLOAD,2022-05-29 13:46:56,15.08831368,0.0002253,53.2192,304.6996,41.0405,319.0756,2.2105e-05,6.3e-07,0.0,0 STARLINK-3112,1 49421U 21104P   22149.57426963  .00000063  00000-0  22105-4 0  9991,2 49421  53.2192 304.6996 0002253  41.0405 319.0756 15.08831368 30273,6917.906999999997,95.438,541.33,538.2130000000002,0.0
49421.0,STARLINK-3112,PAYLOAD,2022-05-29 20:08:29,15.08832268,0.000216,53.219,303.5094,43.1781,316.938,2.1981e-05,6.2e-07,0.0,0 STARLINK-3112,1 49421U 21104P   22149.83922927  .00000062  00000-0  21981-4 0  9991,2 49421  53.2190 303.5094 0002160  43.1781 316.9380 15.08832268 30319,6917.904,95.438,541.263,538.275,0.0
49421.0,STARLINK-3112,PAYLOAD,2022-05-29 22:00:00,15.08794432,0.0002185,53.2179,303.1626,35.1531,25.8993,0.00035174,5.307e-05,0.0,0 STARLINK-3112,1 49421U 21104P   22149.91667824  .00005307  00000-0  35174-3 0  9997,2 49421  53.2179 303.1626 0002185  35.1531  25.8993 15.08794432 31412,6918.02,95.44,541.396,538.373,0.0
49421.0,STARLINK-3112,PAYLOAD,2022-05-30 14:00:01,15.08849481,0.0002003,53.2185,300.1691,36.0947,48.0667,-0.001328,-0.00021367,0.0,0 STARLINK-3112,1 49421U 21104P   22150.58334491 -.00021367  00000-0 -13280-2 0  9992,2 49421  53.2185 300.1691 0002003  36.0947  48.0667 15.08849481 31519,6917.851,95.437,541.102,538.331,0.0
49421.0,STARLINK-3112,PAYLOAD,2022-05-30 22:00:00,15.088263199999998,0.0002129,53.2182,298.6736,32.6737,63.0798,0.0021134,0.00033495,0.0,0 STARLINK-3112,1 49421U 21104P   22150.91667824  .00033495  00000-0  21134-2 0  9998,2 49421  53.2182 298.6736 0002129  32.6737  63.0798 15.08826320  1308,6917.922,95.438,541.26,538.314,0.0
49421.0,STARLINK-3112,PAYLOAD,2022-05-31 06:00:02,15.08827011,0.0001877,53.2185,297.1755,36.0913,71.3285,0.0027173,0.00043208,0.0,0 STARLINK-3112,1 49421U 21104P   22151.25002315  .00043208  00000-0  27173-2 0  9996,2 49421  53.2185 297.1755 0001877  36.0913  71.3285 15.08827011 31617,6917.92,95.438,541.0840000000002,538.487,0.0
49421.0,STARLINK-3112,PAYLOAD,2022-05-31 22:00:00,15.08830456,0.000206,53.2182,294.1846,30.5901,99.9675,0.0017502,0.00027669,0.0,0 STARLINK-3112,1 49421U 21104P   22151.91667824  .00027669  00000-0  17502-2 0  9999,2 49421  53.2182 294.1846 0002060  30.5901  99.9675 15.08830456 31710,6917.91,95.438,541.2,538.349,0.0
49421.0,STARLINK-3112,PAYLOAD,2022-06-01 14:00:01,15.08872579,0.0001964,53.2183,291.1917,35.9255,117.823,-0.0029238,-0.00046562,0.0,0 STARLINK-3112,1 49421U 21104P   22152.58334491 -.00046562  00000-0 -29238-2 0  9998,2 49421  53.2183 291.1917 0001964  35.9255 117.8230 15.08872579 31810,6917.781,95.435,541.004,538.2869999999998,0.0
49421.0,STARLINK-3112,PAYLOAD,2022-06-01 20:00:01,15.08828187,0.0002091,53.218,290.0703,34.1647,38.3043,0.0011975999999999,0.00018817,0.0,0 STARLINK-3112,1 49421U 21104P   22152.83334491  .00018817  00000-0  11976-2 0  9996,2 49421  53.2180 290.0703 0002091  34.1647  38.3043 15.08828187  1302,6917.916,95.438,541.2280000000002,538.335,0.0
49421.0,STARLINK-3112,PAYLOAD,2022-06-02 17:56:14,15.08854299,0.0002019,53.2187,285.9657,42.6168,317.4981,-0.00016309,-2.884e-05,0.0,0 STARLINK-3112,1 49421U 21104P   22153.74739326 -.00002884  00000-0 -16309-3 0  9998,2 49421  53.2187 285.9657 0002019  42.6168 317.4981 15.08854299 31984,6917.837,95.437,541.0980000000002,538.305,0.0
49421.0,STARLINK-3112,PAYLOAD,2022-06-03 08:14:42,15.08845029,0.000199,53.2189,283.289,38.8713,321.2422,7.9751e-05,9.81e-06,0.0,0 STARLINK-3112,1 49421U 21104P   22154.34355048  .00000981  00000-0  79751-4 0  9995,2 49421  53.2189 283.2890 0001990  38.8713 321.2422 15.08845029 30990,6917.865,95.437,541.107,538.3530000000002,0.0
49421.0,STARLINK-3112,PAYLOAD,2022-06-03 14:36:14,15.08852148,0.0002054,53.219,282.0998,39.7405,320.3737,6.393e-05,7.299999999999999e-06,0.0,0 STARLINK-3112,1 49421U 21104P   22154.60850530  .00000730  00000-0  63930-4 0  9994,2 49421  53.2190 282.0998 0002054  39.7405 320.3737 15.08852148 31033,6917.843000000003,95.437,541.129,538.2869999999998,0.0
49421.0,STARLINK-3112,PAYLOAD,2022-06-04 01:43:57,15.08841571,0.0002018,53.2187,280.019,38.5751,321.5385,-1.8276e-05,-5.79e-06,0.0,0 STARLINK-3112,1 49421U 21104P   22155.07219281 -.00000579  00000-0 -18276-4 0  9994,2 49421  53.2187 280.0190 0002018  38.5751 321.5385 15.08841571 32189,6917.876,95.437,541.137,538.345,0.0
49421.0,STARLINK-3112,PAYLOAD,2022-06-04 08:05:30,15.08839053,0.0002032,53.2189,278.8292,38.3771,321.7366,6.397000000000002e-06,-1.86e-06,0.0,0 STARLINK-3112,1 49421U 21104P   22155.33715373 -.00000186  00000-0  63970-5 0  9991,2 49421  53.2189 278.8292 0002032  38.3771 321.7366 15.08839053 31143,6917.8830000000025,95.438,541.154,538.3430000000002,0.0
49421.0,STARLINK-3112,PAYLOAD,2022-06-05 22:00:00,15.08855163,0.0002279,53.2173,271.7402,38.6265,265.8723,-0.0014232,-0.00022877,0.0,0 STARLINK-3112,1 49421U 21104P   22156.91667824 -.00022877  00000-0 -14232-2 0  9999,2 49421  53.2173 271.7402 0002279  38.6265 265.8723 15.08855163 32466,6917.834,95.437,541.276,538.122,0.0
49421.0,STARLINK-3112,PAYLOAD,2022-06-06 14:00:01,15.08836212,0.0002272,53.2176,268.7477,39.1566,288.5524,-0.0014411,-0.00023149,0.0,0 STARLINK-3112,1 49421U 21104P   22157.58334491 -.00023149  00000-0 -14411-2 0  9996,2 49421  53.2176 268.7477 0002272  39.1566 288.5524 15.08836212  1304,6917.892,95.438,541.3290000000002,538.185,0.0
49421.0,STARLINK-3112,PAYLOAD,2022-06-06 20:00:01,15.08827019,0.0002274,53.2173,267.6256,36.711,209.6851,0.000944,0.00014762,0.0,0 STARLINK-3112,1 49421U 21104P   22157.83334491  .00014762  00000-0  94400-3 0  9990,2 49421  53.2173 267.6256 0002274  36.7110 209.6851 15.08827019 32603,6917.92,95.438,541.3580000000002,538.212,0.0
49421.0,STARLINK-3112,PAYLOAD,2022-06-07 13:59:23,15.08837402,0.0002188,53.2191,264.26,43.9394,316.1772,7.161e-05,8.52e-06,0.0,0 STARLINK-3112,1 49421U 21104P   22158.58290829  .00000852  00000-0  71610-4 0  9993,2 49421  53.2191 264.2600 0002188  43.9394 316.1772 15.08837402 31632,6917.888000000001,95.438,541.2669999999998,538.24,0.0
49421.0,STARLINK-3112,PAYLOAD,2022-06-08 13:50:10,15.08840613,0.0002251,53.2186,259.7987,41.3226,318.7936,-1.7301e-05,-5.64e-06,0.0,0 STARLINK-3112,1 49421U 21104P   22159.57650882 -.00000564  00000-0 -17301-4 0  9991,2 49421  53.2186 259.7987 0002251  41.3226 318.7936 15.08840613 31784,6917.879,95.438,541.3009999999998,538.186,0.0
49421.0,STARLINK-3112,PAYLOAD,2022-06-08 23:22:29,15.08834121,0.0002215,53.2182,258.0145,38.3535,321.7614,3.672800000000001e-05,2.96e-06,0.0,0 STARLINK-3112,1 49421U 21104P   22159.97395140  .00000296  00000-0  36728-4 0  9992,2 49421  53.2182 258.0145 0002215  38.3535 321.7614 15.08834121 32928,6917.898,95.438,541.2959999999998,538.231,0.0
49421.0,STARLINK-3112,PAYLOAD,2022-06-09 10:30:11,15.08831956,0.0002112,53.2187,255.9342,42.8917,317.2239,-4.889e-05,-1.066e-05,0.0,0 STARLINK-3112,1 49421U 21104P   22160.43763774 -.00001066  00000-0 -48890-4 0  9998,2 49421  53.2187 255.9342 0002112  42.8917 317.2239 15.08831956 31912,6917.905,95.438,541.231,538.309,0.0
49421.0,STARLINK-3112,PAYLOAD,2022-06-09 16:51:44,15.08834651,0.0002154,53.2186,254.7445,42.365,317.7509,-2.6246e-05,-7.06e-06,0.0,0 STARLINK-3112,1 49421U 21104P   22160.70259627 -.00000706  00000-0 -26246-4 0  9996,2 49421  53.2186 254.7445 0002154  42.3650 317.7509 15.08834651 31951,6917.897,95.438,541.252,538.2719999999998,0.0
49421.0,STARLINK-3112,PAYLOAD,2022-06-10 05:34:48,15.08839326,0.0002131,53.219,252.3663,43.4502,316.6658,5.747100000000001e-05,6.27e-06,0.0,0 STARLINK-3112,1 49421U 21104P   22161.23251047  .00000627  00000-0  57471-4 0  9997,2 49421  53.2190 252.3663 0002131  43.4502 316.6658 15.08839326 33112,6917.882,95.438,541.222,538.273,0.0
49421.0,STARLINK-3112,PAYLOAD,2022-06-10 10:20:58,15.08839566,0.0002147,53.219,251.4741,43.4316,316.6845,5.6958e-05,6.18e-06,0.0,0 STARLINK-3112,1 49421U 21104P   22161.43123080  .00000618  00000-0  56958-4 0  9993,2 49421  53.2190 251.4741 0002147  43.4316 316.6845 15.08839566 32066,6917.882,95.438,541.232,538.261,0.0
49421.0,STARLINK-3112,PAYLOAD,2022-06-11 05:25:37,15.08824886,0.0002309,53.2185,247.906,38.8826,321.2332,9.8358e-06,-1.32e-06,0.0,0 STARLINK-3112,1 49421U 21104P   22162.22612601 -.00000132  00000-0  98358-5 0  9996,2 49421  53.2185 247.9060 0002309  38.8826 321.2332 15.08824886 33263,6917.927,95.439,541.389,538.194,0.0
49421.0,STARLINK-3112,PAYLOAD,2022-06-11 13:22:33,15.08826044,0.0002048,53.2182,246.4186,36.0923,324.0207,-1.6685e-05,-5.54e-06,0.0,0 STARLINK-3112,1 49421U 21104P   22162.55732857 -.00000554  00000-0 -16685-4 0  9999,2 49421  53.2182 246.4186 0002048  36.0923 324.0207 15.08826044 32237,6917.9230000000025,95.438,541.205,538.371,0.0
49421.0,STARLINK-3112,PAYLOAD,2022-06-12 11:37:56,15.08837026,0.0002041,53.2184,242.2551,35.2641,324.8486,3.7562e-05,3.1e-06,0.0,0 STARLINK-3112,1 49421U 21104P   22163.48468489  .00000310  00000-0  37562-4 0  9994,2 49421  53.2184 242.2551 0002041  35.2641 324.8486 15.08837026 33454,6917.889,95.438,541.1659999999998,538.3430000000002,0.0
49421.0,STARLINK-3112,PAYLOAD,2022-06-13 11:28:42,15.08848217,0.0002105,53.2181,237.7948,35.3592,324.7539,0.00022264,3.258e-05,0.0,0 STARLINK-3112,1 49421U 21104P   22164.47827295  .00003258  00000-0  22264-3 0  9994,2 49421  53.2181 237.7948 0002105  35.3592 324.7539 15.08848217 33606,6917.855,95.437,541.1759999999998,538.264,0.0
